{
  "norad_id": 28190,
  "name": "NAVSTAR 54 (USA 177)",
  "history": [
    {
      "epoch": "2026-03-28T08:46:59.974752Z",
      "apogee_km": 20480.673915162715,
      "perigee_km": 19884.87180321987,
      "latitude_deg": 1.43100128235503,
      "longitude_deg": 140.41671253473515,
      "height_km": 19888.55265221053,
      "semi_major_axis_km": 26560.90985919129,
      "eccentricity": 0.01121577,
      "inclination_deg": 54.8974,
      "raan_deg": 278.9506,
      "arg_perigee_deg": 169.767,
      "mean_anomaly_deg": 8.2543,
      "mean_motion_rev_day": 2.00557238
    },
    {
      "epoch": "2026-03-31T14:45:46.977120Z",
      "apogee_km": 20481.102007880843,
      "perigee_km": 19884.448301601595,
      "latitude_deg": 3.0305819963751857,
      "longitude_deg": -129.47920573936358,
      "height_km": 20471.65412182381,
      "semi_major_axis_km": 26560.912154741218,
      "eccentricity": 0.0112318,
      "inclination_deg": 54.8949,
      "raan_deg": 278.8194,
      "arg_perigee_deg": 169.8815,
      "mean_anomaly_deg": 194.1241,
      "mean_motion_rev_day": 2.00557212
    }
  ]
}